{"type": "FeatureCollection", "features": [ {"type": "Feature", "properties": {"norad_id": 66799, "name": "STARLINK-36044", "group": "last-30-days", "lat": -4.964478802727966, "lon": 162.07394033844477, "alt_km": 415.45347669864805, "timestamp": "2025-12-26T21:25:51.733896+00:00", "meta": {"OBJECT_NAME": "STARLINK-36044", "OBJECT_ID": "2025-278J", "EPOCH": "2025-12-26T14:00:04.000032", "MEAN_MOTION": 15.50525355, "ECCENTRICITY": 0.00014115, "INCLINATION": 42.9999, "RA_OF_ASC_NODE": 169.2338, "ARG_OF_PERICENTER": 262.8702, "MEAN_ANOMALY": 159.7748, "EPHEMERIS_TYPE": 0, "CLASSIFICATION_TYPE": "U", "NORAD_CAT_ID": 66799, "ELEMENT_SET_NO": 999, "REV_AT_EPOCH": 518, "BSTAR": 0.00089120598, "MEAN_MOTION_DOT": 0.0005219, "MEAN_MOTION_DDOT": 0}, "tle": {"line1": "1 66799U 25278J   25360.58337963  .00052190  00000+0  89121-3 0  9991", "line2": "2 66799  42.9999 169.2338 0001411 262.8702 159.7748 15.50525355  5188"}}, "geometry": {"type": "Point", "coordinates": [162.07394033844477, -4.964478802727966]}}, {"type": "Feature", "properties": {"norad_id": 66800, "name": "STARLINK-35996", "group": "last-30-days", "lat": -2.3568632007996375, "lon": 164.8810688015545, "alt_km": 415.16759069552063, "timestamp": "2025-12-26T21:25:51.733906+00:00", "meta": {"OBJECT_NAME": "STARLINK-35996", "OBJECT_ID": "2025-278K", "EPOCH": "2025-12-26T14:00:04.000032", "MEAN_MOTION": 15.50523385, "ECCENTRICITY": 0.00014235, "INCLINATION": 42.9999, "RA_OF_ASC_NODE": 169.2237, "ARG_OF_PERICENTER": 264.7994, "MEAN_ANOMALY": 161.6817, "EPHEMERIS_TYPE": 0, "CLASSIFICATION_TYPE": "U", "NORAD_CAT_ID": 66800, "ELEMENT_SET_NO": 999, "REV_AT_EPOCH": 497, "BSTAR": 0.00091490645, "MEAN_MOTION_DOT": 0.00053593, "MEAN_MOTION_DDOT": 0}, "tle": {"line1": "1 66800U 25278K   25360.58337963  .00053593  00000+0  91491-3 0  9995", "line2": "2 66800  42.9999 169.2237 0001423 264.7994 161.6817 15.50523385  4972"}}, "geometry": {"type": "Point", "coordinates": [164.8810688015545, -2.3568632007996375]}}, {"type": "Feature", "properties": {"norad_id": 66801, "name": "STARLINK-36080", "group": "last-30-days", "lat": 1.5034038038719855, "lon": 169.01007372086863, "alt_km": 424.0202069473453, "timestamp": "2025-12-26T21:25:51.733916+00:00", "meta": {"OBJECT_NAME": "STARLINK-36080", "OBJECT_ID": "2025-278L", "EPOCH": "2025-12-26T14:00:04.000032", "MEAN_MOTION": 15.48858339, "ECCENTRICITY": 0.00014969, "INCLINATION": 43, "RA_OF_ASC_NODE": 169.2007, "ARG_OF_PERICENTER": 268.0455, "MEAN_ANOMALY": 166.7737, "EPHEMERIS_TYPE": 0, "CLASSIFICATION_TYPE": "U", "NORAD_CAT_ID": 66801, "ELEMENT_SET_NO": 999, "REV_AT_EPOCH": 518, "BSTAR": -0.042649883, "MEAN_MOTION_DOT": -0.02090609, "MEAN_MOTION_DDOT": 0}, "tle": {"line1": "1 66801U 25278L   25360.58337963 -.02090609  00000+0 -42650-1 0  9990", "line2": "2 66801  43.0000 169.2007 0001496 268.0455 166.7737 15.48858339  5180"}}, "geometry": {"type": "Point", "coordinates": [169.01007372086863, 1.5034038038719855]}}, {"type": "Feature", "properties": {"norad_id": 66802, "name": "STARLINK-35604", "group": "last-30-days", "lat": -3.660649487143314, "lon": 163.48031799213348, "alt_km": 415.3429888763785, "timestamp": "2025-12-26T21:25:51.733927+00:00", "meta": {"OBJECT_NAME": "STARLINK-35604", "OBJECT_ID": "2025-278M", "EPOCH": "2025-12-26T14:00:04.000032", "MEAN_MOTION": 15.50528302, "ECCENTRICITY": 0.00015229, "INCLINATION": 42.9999, "RA_OF_ASC_NODE": 169.2283, "ARG_OF_PERICENTER": 262.3238, "MEAN_ANOMALY": 162.2384, "EPHEMERIS_TYPE": 0, "CLASSIFICATION_TYPE": "U", "NORAD_CAT_ID": 66802, "ELEMENT_SET_NO": 999, "REV_AT_EPOCH": 518, "BSTAR": 0.00075157117, "MEAN_MOTION_DOT": 0.00043917, "MEAN_MOTION_DDOT": 0}, "tle": {"line1": "1 66802U 25278M   25360.58337963  .00043917  00000+0  75157-3 0  9997", "line2": "2 66802  42.9999 169.2283 0001522 262.3238 162.2384 15.50528302  5184"}}, "geometry": {"type": "Point", "coordinates": [163.48031799213348, -3.660649487143314]}}, {"type": "Feature", "properties": {"norad_id": 66803, "name": "STARLINK-35565", "group": "last-30-days", "lat": -38.76875714695924, "lon": 108.03902517903781, "alt_km": 446.0801012239881, "timestamp": "2025-12-26T21:25:51.733937+00:00", "meta": {"OBJECT_NAME": "STARLINK-35565", "OBJECT_ID": "2025-278N", "EPOCH": "2025-12-26T14:00:04.000032", "MEAN_MOTION": 15.40682047, "ECCENTRICITY": 0.00018182, "INCLINATION": 43.0001, "RA_OF_ASC_NODE": 169.3486, "ARG_OF_PERICENTER": 273.0582, "MEAN_ANOMALY": 101.1444, "EPHEMERIS_TYPE": 0, "CLASSIFICATION_TYPE": "U", "NORAD_CAT_ID": 66803, "ELEMENT_SET_NO": 999, "REV_AT_EPOCH": 527, "BSTAR": 0.00040597823, "MEAN_MOTION_DOT": 0.00016682, "MEAN_MOTION_DDOT": 0}, "tle": {"line1": "1 66803U 25278N   25360.58337963  .00016682  00000+0  40598-3 0  9998", "line2": "2 66803  43.0001 169.3486 0001818 273.0582 101.1444 15.40682047  5271"}}, "geometry": {"type": "Point", "coordinates": [108.03902517903781, -38.76875714695924]}}, {"type": "Feature", "properties": {"norad_id": 66804, "name": "STARLINK-36038", "group": "last-30-days", "lat": -33.60386545976912, "lon": 122.04881125556894, "alt_km": 446.0508231607773, "timestamp": "2025-12-26T21:25:51.733949+00:00", "meta": {"OBJECT_NAME": "STARLINK-36038", "OBJECT_ID": "2025-278P", "EPOCH": "2025-12-26T14:00:04.000032", "MEAN_MOTION": 15.40656719, "ECCENTRICITY": 0.00017972, "INCLINATION": 43.0002, "RA_OF_ASC_NODE": 169.3196, "ARG_OF_PERICENTER": 267.6404, "MEAN_ANOMALY": 119.0315, "EPHEMERIS_TYPE": 0, "CLASSIFICATION_TYPE": "U", "NORAD_CAT_ID": 66804, "ELEMENT_SET_NO": 999, "REV_AT_EPOCH": 518, "BSTAR": 0.00071542347, "MEAN_MOTION_DOT": 0.00029655, "MEAN_MOTION_DDOT": 0}, "tle": {"line1": "1 66804U 25278P   25360.58337963  .00029655  00000+0  71542-3 0  9996", "line2": "2 66804  43.0002 169.3196 0001797 267.6404 119.0315 15.40656719  5181"}}, "geometry": {"type": "Point", "coordinates": [122.04881125556894, -33.60386545976912]}}, {"type": "Feature", "properties": {"norad_id": 66805, "name": "STARLINK-36049", "group": "last-30-days", "lat": -19.659601885569774, "lon": 144.9310052884291, "alt_km": 443.58570437953495, "timestamp": "2025-12-26T21:25:51.733959+00:00", "meta": {"OBJECT_NAME": "STARLINK-36049", "OBJECT_ID": "2025-278Q", "EPOCH": "2025-12-26T14:00:04.000032", "MEAN_MOTION": 15.42867311, "ECCENTRICITY": 0.000128, "INCLINATION": 43.0001, "RA_OF_ASC_NODE": 169.2625, "ARG_OF_PERICENTER": 272.3064, "MEAN_ANOMALY": 137.4705, "EPHEMERIS_TYPE": 0, "CLASSIFICATION_TYPE": "U", "NORAD_CAT_ID": 66805, "ELEMENT_SET_NO": 999, "REV_AT_EPOCH": 518, "BSTAR": -0.055137625, "MEAN_MOTION_DOT": -0.02221678, "MEAN_MOTION_DDOT": 0}, "tle": {"line1": "1 66805U 25278Q   25360.58337963 -.02221678  00000+0 -55138-1 0  9991", "line2": "2 66805  43.0001 169.2625 0001280 272.3064 137.4705 15.42867311  5180"}}, "geometry": {"type": "Point", "coordinates": [144.9310052884291, -19.659601885569774]}}, {"type": "Feature", "properties": {"norad_id": 66806, "name": "STARLINK-36069", "group": "last-30-days", "lat": 1.2521001987750997, "lon": 168.74128305054583, "alt_km": 417.7996512968639, "timestamp": "2025-12-26T21:25:51.733971+00:00", "meta": {"OBJECT_NAME": "STARLINK-36069", "OBJECT_ID": "2025-278R", "EPOCH": "2025-12-26T14:00:04.000032", "MEAN_MOTION": 15.50879645, "ECCENTRICITY": 0.00013158, "INCLINATION": 42.9997, "RA_OF_ASC_NODE": 169.2074, "ARG_OF_PERICENTER": 277.2624, "MEAN_ANOMALY": 154.9065, "EPHEMERIS_TYPE": 0, "CLASSIFICATION_TYPE": "U", "NORAD_CAT_ID": 66806, "ELEMENT_SET_NO": 999, "REV_AT_EPOCH": 497, "BSTAR": -0.038451696, "MEAN_MOTION_DOT": -0.0203301, "MEAN_MOTION_DDOT": 0}, "tle": {"line1": "1 66806U 25278R   25360.58337963 -.02033010  00000+0 -38452-1 0  9993", "line2": "2 66806  42.9997 169.2074 0001315 277.2624 154.9065 15.50879645  4977"}}, "geometry": {"type": "Point", "coordinates": [168.74128305054583, 1.2521001987750997]}}, {"type": "Feature", "properties": {"norad_id": 66807, "name": "STARLINK-36000", "group": "last-30-days", "lat": 5.485285204193734, "lon": 173.29758258147172, "alt_km": 414.4129544944881, "timestamp": "2025-12-26T21:25:51.733981+00:00", "meta": {"OBJECT_NAME": "STARLINK-36000", "OBJECT_ID": "2025-278S", "EPOCH": "2025-12-26T14:00:04.000032", "MEAN_MOTION": 15.50598188, "ECCENTRICITY": 0.00014993, "INCLINATION": 43, "RA_OF_ASC_NODE": 169.1938, "ARG_OF_PERICENTER": 260.9292, "MEAN_ANOMALY": 177.0285, "EPHEMERIS_TYPE": 0, "CLASSIFICATION_TYPE": "U", "NORAD_CAT_ID": 66807, "ELEMENT_SET_NO": 999, "REV_AT_EPOCH": 524, "BSTAR": -0.0012591339, "MEAN_MOTION_DOT": -0.00073569, "MEAN_MOTION_DDOT": 0}, "tle": {"line1": "1 66807U 25278S   25360.58337963 -.00073569  00000+0 -12591-2 0  9992", "line2": "2 66807  43.0000 169.1938 0001499 260.9292 177.0285 15.50598188  5247"}}, "geometry": {"type": "Point", "coordinates": [173.29758258147172, 5.485285204193734]}}, {"type": "Feature", "properties": {"norad_id": 66808, "name": "STARLINK-36071", "group": "last-30-days", "lat": 6.776090521000957, "lon": 174.70377915367382, "alt_km": 414.2857104504528, "timestamp": "2025-12-26T21:25:51.733992+00:00", "meta": {"OBJECT_NAME": "STARLINK-36071", "OBJECT_ID": "2025-278T", "EPOCH": "2025-12-26T14:00:04.000032", "MEAN_MOTION": 15.50534719, "ECCENTRICITY": 0.0001578, "INCLINATION": 42.9999, "RA_OF_ASC_NODE": 169.1892, "ARG_OF_PERICENTER": 259.0284, "MEAN_ANOMALY": 180.8668, "EPHEMERIS_TYPE": 0, "CLASSIFICATION_TYPE": "U", "NORAD_CAT_ID": 66808, "ELEMENT_SET_NO": 999, "REV_AT_EPOCH": 518, "BSTAR": 0.00064558999, "MEAN_MOTION_DOT": 0.00037655, "MEAN_MOTION_DDOT": 0}, "tle": {"line1": "1 66808U 25278T   25360.58337963  .00037655  00000+0  64559-3 0  9999", "line2": "2 66808  42.9999 169.1892 0001578 259.0284 180.8668 15.50534719  5180"}}, "geometry": {"type": "Point", "coordinates": [174.70377915367382, 6.776090521000957]}}]}